      2.10          N: GNSS NAV DATA                        RINEX VERSION / TYPE
fic2rin                                 02/11/2024 00:17:59 PGM / RUN BY / DATE
                                                            END OF HEADER
7  24  2 10  1 59 44.0 -.582523643970D-04 -.909494701773D-11  .000000000000D+00
     .200000000000D+01  .249375000000D+02  .465983695806D-08  .204935673161D+01
     .109896063805D-05  .179214071250D-01  .105239450932D-04  .515367313385D+04
     .525584000000D+06 -.204890966415D-06  .882400067048D+00 -.456348061562D-06
     .950345507899D+00  .171593750000D+03 -.215211934041D+01 -.793425906517D-08
     .766460497585D-09  .100000000000D+01  .230000000000D+04  .000000000000D+00
     .240000000000D+01  .000000000000D+00 -.111758708954D-07  .200000000000D+01
     .518400000000D+06  .400000000000D+01
5  24  2 10  2  0  0.0 -.161222647876D-03 -.147792889038D-11  .000000000000D+00
     .650000000000D+02 -.379062500000D+02  .479448542385D-08 -.107046639457D+01
    -.185333192348D-05  .566270342097D-02 -.260770320892D-07  .515355414009D+04
     .525600000000D+06 -.279396772385D-07 -.126013468030D+01  .726431608200D-07
     .969487884593D+00  .382781250000D+03  .123440174794D+01 -.863893127473D-08
    -.180721813503D-09  .100000000000D+01  .230000000000D+04  .000000000000D+00
     .240000000000D+01  .000000000000D+00 -.111758708954D-07  .650000000000D+02
     .518400000000D+06  .400000000000D+01
3  24  2 10  2  0  0.0  .183229334652D-03  .245563569479D-10  .000000000000D+00
     .530000000000D+02 -.268750000000D+02  .446340020425D-08  .167178315931D+01
    -.157579779625D-05  .508152216207D-02  .000000000000D+00  .515377849579D+04
     .525600000000D+06 -.856816768646D-07 -.121018125928D+01 -.931322574615D-08
     .982514829229D+00  .390062500000D+03  .107106907439D+01 -.843606568171D-08
    -.162506769059D-09  .100000000000D+01  .230000000000D+04  .000000000000D+00
     .240000000000D+01  .000000000000D+00  .186264514923D-08  .530000000000D+02
     .518400000000D+06  .400000000000D+01
2  24  2 10  2  0  0.0 -.487835612148D-03  .579802872380D-11  .000000000000D+00
     .181000000000D+03  .148437500000D+03  .438303971405D-08 -.106876234663D+01
     .779703259468D-05  .162106410135D-01  .952370464802D-05  .515371606636D+04
     .525600000000D+06 -.305473804474D-06 -.234346966155D+01 -.745058059692D-08
     .967676632553D+00  .207812500000D+03 -.124410837470D+01 -.826212986516D-08
     .448232956416D-09  .100000000000D+01  .230000000000D+04  .000000000000D+00
     .340000000000D+01  .000000000000D+00 -.176951289177D-07  .181000000000D+03
     .518400000000D+06  .400000000000D+01
1  24  2 10  2  0  0.0  .168949831277D-03  .147792889038D-11  .000000000000D+00
     .990000000000D+02  .151468750000D+03  .381515891668D-08  .258474760221D+01
     .770762562752D-05  .127027381677D-01  .818446278572D-05  .515400458336D+04
     .525600000000D+06 -.931322574615D-08 -.223916936785D+01 -.208616256714D-06
     .990645395831D+00  .234812500000D+03  .998917463185D+00 -.761067415798D-08
     .397159400426D-09  .100000000000D+01  .230000000000D+04  .000000000000D+00
     .485000000000D+01  .630000000000D+02  .512227416039D-08  .990000000000D+02
     .518400000000D+06  .400000000000D+01
8  24  2 10  2  0  0.0 -.166274607182D-03 -.181898940355D-11  .000000000000D+00
     .380000000000D+02 -.287500000000D+01  .447768651362D-08 -.139883993843D+01
    -.361353158951D-06  .933295325376D-02  .123623758554D-04  .515358712769D+04
     .525600000000D+06  .353902578354D-07  .294438503814D+01 -.206753611565D-06
     .955063864895D+00  .134875000000D+03  .315317994786D+00 -.785139847083D-08
    -.522164607395D-09  .100000000000D+01  .230000000000D+04  .000000000000D+00
     .240000000000D+01  .000000000000D+00  .512227416039D-08  .380000000000D+02
     .518400000000D+06  .400000000000D+01
4  24  2 10  2  0  0.0  .287859234959D-03  .943600753089D-11  .000000000000D+00
     .950000000000D+02 -.140031250000D+03  .406016912234D-08 -.165888685472D+01
    -.738911330700D-05  .284299952909D-02  .106878578663D-04  .515359295845D+04
     .525600000000D+06 -.745058059692D-07 -.130606510000D+00 -.633299350739D-07
     .964736644125D+00  .176125000000D+03 -.298196332791D+01 -.777603818892D-08
    -.141791620476D-09  .100000000000D+01  .230000000000D+04  .000000000000D+00
     .240000000000D+01  .000000000000D+00 -.465661287308D-08  .351000000000D+03
     .518400000000D+06  .400000000000D+01
31 24  2 11  0  0  0.0 -.227724667639D-03 -.113686837722D-12  .000000000000D+00
     .290000000000D+02  .180625000000D+02  .453661753976D-08  .184238407801D+00
     .114552676678D-05  .105683781439D-01  .115558505058D-04  .515368117905D+04
     .000000000000D+00  .596046447754D-07  .782401222106D+00  .169500708580D-06
     .954388524856D+00  .154562500000D+03  .657277688105D+00 -.810248035797D-08
     .667170647478D-09  .100000000000D+01  .230100000000D+04  .000000000000D+00
     .240000000000D+01  .000000000000D+00 -.135041773319D-07  .290000000000D+02
    -.720000000000D+04  .400000000000D+01
32 24  2 11  0  0  0.0 -.610929913819D-03 -.216004991671D-11  .000000000000D+00
     .270000000000D+02 -.149250000000D+03  .429732185785D-08 -.165011024887D+01
    -.772252678871D-05  .753507157788D-02  .908598303795D-05  .515364068031D+04
     .000000000000D+00  .283122062683D-06 -.296121955331D+00 -.104308128357D-06
     .961674750733D+00  .205593750000D+03 -.218236986766D+01 -.798818988303D-08
    -.413945813933D-09  .100000000000D+01  .230100000000D+04  .000000000000D+00
     .240000000000D+01  .000000000000D+00  .465661287308D-09  .270000000000D+02
    -.720000000000D+04  .400000000000D+01
24 24  2 11  0  0  0.0 -.429649837315D-03 -.636646291241D-11  .000000000000D+00
     .190000000000D+02  .115000000000D+02  .486234539335D-08  .208403471314D+01
     .501051545143D-06  .150822657160D-01  .135600566864D-04  .515373386192D+04
     .000000000000D+00 -.156462192535D-06  .666157889041D+00 -.271946191788D-06
     .934146106912D+00  .101593750000D+03  .967010030524D+00 -.808283668259D-08
     .698243370353D-09  .100000000000D+01  .230100000000D+04  .000000000000D+00
     .240000000000D+01  .000000000000D+00  .232830643654D-08  .190000000000D+02
    -.720000000000D+04  .400000000000D+01
16 24  2 11  0  0  0.0 -.365363899618D-03  .818545231596D-11  .000000000000D+00
     .290000000000D+02 -.546875000000D+01  .504735309966D-08 -.142422544823D+01
    -.158324837685D-06  .140086137690D-01  .345334410667D-05  .515371862984D+04
     .000000000000D+00  .275671482086D-06  .189515878188D+01 -.745058059692D-08
     .962299232426D+00  .305625000000D+03  .824870027993D+00 -.835463371831D-08
     .767889128522D-10  .100000000000D+01  .230100000000D+04  .000000000000D+00
     .240000000000D+01  .000000000000D+00 -.102445483208D-07  .290000000000D+02
    -.720000000000D+04  .400000000000D+01
30 24  2 11  0  0  0.0 -.434192363173D-03  .488853402203D-11  .000000000000D+00
     .320000000000D+02  .415312500000D+02  .496413534759D-08  .928439661399D+00
     .228732824326D-05  .678794551641D-02  .116135925055D-04  .515369580460D+04
     .000000000000D+00 -.178813934326D-06  .763540983792D+00  .108033418655D-06
     .935533577917D+00  .143375000000D+03 -.253460580124D+01 -.825534386821D-08
     .589310261424D-09  .100000000000D+01  .230100000000D+04  .000000000000D+00
     .240000000000D+01  .000000000000D+00  .372529029846D-08  .320000000000D+02
    -.720000000000D+04  .400000000000D+01
22 24  2 11  0  0  0.0  .332738272846D-04 -.625277607469D-11  .000000000000D+00
     .300000000000D+02 -.137500000000D+02  .510128391752D-08 -.184914018772D+01
    -.372529029846D-06  .145338056609D-01  .428594648838D-05  .515370552444D+04
     .000000000000D+00 -.182539224625D-06  .189846348018D+01  .353902578354D-06
     .961595846784D+00  .298750000000D+03 -.114271551073D+01 -.837570602463D-08
    -.102147111980D-09  .100000000000D+01  .230100000000D+04  .000000000000D+00
     .240000000000D+01  .000000000000D+00 -.111758708954D-07  .300000000000D+02
    -.720000000000D+04  .400000000000D+01
20 24  2 11  0  0  0.0  .387972686440D-03 -.147792889038D-11  .000000000000D+00
     .220000000000D+02  .408437500000D+02  .515128600031D-08  .242713613503D+01
     .201351940632D-05  .388837733772D-02  .333413481712D-06  .515371295738D+04
     .000000000000D+00 -.707805156708D-07 -.150829877093D+01 -.949949026108D-07
     .951961747108D+00  .369937500000D+03 -.263740457483D+01 -.878929468083D-08
     .885751180806D-10  .100000000000D+01  .230100000000D+04  .000000000000D+00
     .240000000000D+01  .000000000000D+00 -.838190317154D-08  .220000000000D+02
    -.720000000000D+04  .400000000000D+01
